{"type": "FeatureCollection", "features": [ {"type": "Feature", "properties": {"norad_id": 41549, "name": "GSAT0211 (GALILEO 14)", "group": "gnss", "lat": -16.260494261611235, "lon": 58.793928351526546, "alt_km": 23236.022668292215, "timestamp": "2025-12-03T04:52:29.880365+00:00", "meta": {"OBJECT_NAME": "GSAT0211 (GALILEO 14)", "OBJECT_ID": "2016-030A", "EPOCH": "2025-12-01T16:54:04.942368", "MEAN_MOTION": 1.70472896, "ECCENTRICITY": 0.00038995, "INCLINATION": 55.1563, "RA_OF_ASC_NODE": 227.1275, "ARG_OF_PERICENTER": 10.5053, "MEAN_ANOMALY": 349.5828, "EPHEMERIS_TYPE": 0, "CLASSIFICATION_TYPE": "U", "NORAD_CAT_ID": 41549, "ELEMENT_SET_NO": 999, "REV_AT_EPOCH": 5930, "BSTAR": 0, "MEAN_MOTION_DOT": 3.3e-07, "MEAN_MOTION_DDOT": 0}, "tle": {"line1": "1 41549U 16030A   25335.70422387  .00000033  00000+0  00000+0 0  9998", "line2": "2 41549  55.1563 227.1275 0003899  10.5053 349.5828  1.70472896 59309"}}, "geometry": {"type": "Point", "coordinates": [58.793928351526546, -16.260494261611235]}}, {"type": "Feature", "properties": {"norad_id": 41550, "name": "GSAT0210 (GALILEO 13)", "group": "gnss", "lat": 33.24798304117343, "lon": -105.78276360104627, "alt_km": 23221.584157791083, "timestamp": "2025-12-03T04:52:29.880376+00:00", "meta": {"OBJECT_NAME": "GSAT0210 (GALILEO 13)", "OBJECT_ID": "2016-030B", "EPOCH": "2025-12-01T09:00:06.320160", "MEAN_MOTION": 1.70473417, "ECCENTRICITY": 0.00012162, "INCLINATION": 55.1557, "RA_OF_ASC_NODE": 227.1346, "ARG_OF_PERICENTER": 241.6156, "MEAN_ANOMALY": 118.4503, "EPHEMERIS_TYPE": 0, "CLASSIFICATION_TYPE": "U", "NORAD_CAT_ID": 41550, "ELEMENT_SET_NO": 999, "REV_AT_EPOCH": 5929, "BSTAR": 0, "MEAN_MOTION_DOT": 3.2e-07, "MEAN_MOTION_DDOT": 0}, "tle": {"line1": "1 41550U 16030B   25335.37507315  .00000032  00000+0  00000+0 0  9997", "line2": "2 41550  55.1557 227.1346 0001216 241.6156 118.4503  1.70473417 59296"}}, "geometry": {"type": "Point", "coordinates": [-105.78276360104627, 33.24798304117343]}}, {"type": "Feature", "properties": {"norad_id": 41586, "name": "BEIDOU-2 G7 (C03)", "group": "gnss", "lat": -0.26972798485555, "lon": -104.12276515199969, "alt_km": 35804.8799373679, "timestamp": "2025-12-03T04:52:29.880390+00:00", "meta": {"OBJECT_NAME": "BEIDOU-2 G7 (C03)", "OBJECT_ID": "2016-037A", "EPOCH": "2025-12-02T19:47:21.781824", "MEAN_MOTION": 1.00271944, "ECCENTRICITY": 0.000443, "INCLINATION": 1.7308, "RA_OF_ASC_NODE": 67.6826, "ARG_OF_PERICENTER": 5.1199, "MEAN_ANOMALY": 46.4475, "EPHEMERIS_TYPE": 0, "CLASSIFICATION_TYPE": "U", "NORAD_CAT_ID": 41586, "ELEMENT_SET_NO": 999, "REV_AT_EPOCH": 492, "BSTAR": 0, "MEAN_MOTION_DOT": -3.34e-06, "MEAN_MOTION_DDOT": 0}, "tle": {"line1": "1 41586U 16037A   25336.82455766 -.00000334  00000+0  00000+0 0  9992", "line2": "2 41586   1.7308  67.6826 0004430   5.1199  46.4475  1.00271944  4929"}}, "geometry": {"type": "Point", "coordinates": [-104.12276515199969, -0.26972798485555]}}, {"type": "Feature", "properties": {"norad_id": 41589, "name": "EUTELSAT 117 WEST B (WAAS/PRN 131)", "group": "gnss", "lat": -0.013104386119786872, "lon": 28.391969447189656, "alt_km": 35786.18730232063, "timestamp": "2025-12-03T04:52:29.880422+00:00", "meta": {"OBJECT_NAME": "EUTELSAT 117 WEST B (WAAS/PRN 131)", "OBJECT_ID": "2016-038B", "EPOCH": "2025-12-02T10:37:38.767584", "MEAN_MOTION": 1.0026853, "ECCENTRICITY": 2.024e-05, "INCLINATION": 0.0102, "RA_OF_ASC_NODE": 144.9746, "ARG_OF_PERICENTER": 219.6495, "MEAN_ANOMALY": 109.3395, "EPHEMERIS_TYPE": 0, "CLASSIFICATION_TYPE": "U", "NORAD_CAT_ID": 41589, "ELEMENT_SET_NO": 999, "REV_AT_EPOCH": 3469, "BSTAR": 0, "MEAN_MOTION_DOT": 9e-08, "MEAN_MOTION_DDOT": 0}, "tle": {"line1": "1 41589U 16038B   25336.44280981  .00000009  00000+0  00000+0 0  9997", "line2": "2 41589   0.0102 144.9746 0000202 219.6495 109.3395  1.00268530 34694"}}, "geometry": {"type": "Point", "coordinates": [28.391969447189656, -0.013104386119786872]}}, {"type": "Feature", "properties": {"norad_id": 41859, "name": "GSAT0207 (GALILEO 15)", "group": "gnss", "lat": -39.834930736337974, "lon": -38.33259218659051, "alt_km": 23227.407410543325, "timestamp": "2025-12-03T04:52:29.880438+00:00", "meta": {"OBJECT_NAME": "GSAT0207 (GALILEO 15)", "OBJECT_ID": "2016-069A", "EPOCH": "2025-11-30T11:31:32.297952", "MEAN_MOTION": 1.70474248, "ECCENTRICITY": 0.00020596, "INCLINATION": 55.375, "RA_OF_ASC_NODE": 106.5899, "ARG_OF_PERICENTER": 325.7449, "MEAN_ANOMALY": 34.2162, "EPHEMERIS_TYPE": 0, "CLASSIFICATION_TYPE": "U", "NORAD_CAT_ID": 41859, "ELEMENT_SET_NO": 999, "REV_AT_EPOCH": 5601, "BSTAR": 0, "MEAN_MOTION_DOT": 4.7e-07, "MEAN_MOTION_DDOT": 0}, "tle": {"line1": "1 41859U 16069A   25334.48023493  .00000047  00000+0  00000+0 0  9998", "line2": "2 41859  55.3750 106.5899 0002059 325.7449  34.2162  1.70474248 56019"}}, "geometry": {"type": "Point", "coordinates": [-38.33259218659051, -39.834930736337974]}}, {"type": "Feature", "properties": {"norad_id": 41860, "name": "GSAT0212 (GALILEO 16)", "group": "gnss", "lat": -31.248355457291698, "lon": 81.71420885002068, "alt_km": 23224.17813593184, "timestamp": "2025-12-03T04:52:29.880449+00:00", "meta": {"OBJECT_NAME": "GSAT0212 (GALILEO 16)", "OBJECT_ID": "2016-069B", "EPOCH": "2025-12-02T02:14:50.667072", "MEAN_MOTION": 1.70474451, "ECCENTRICITY": 0.0002264, "INCLINATION": 55.3734, "RA_OF_ASC_NODE": 106.5405, "ARG_OF_PERICENTER": 34.5338, "MEAN_ANOMALY": 325.4448, "EPHEMERIS_TYPE": 0, "CLASSIFICATION_TYPE": "U", "NORAD_CAT_ID": 41860, "ELEMENT_SET_NO": 999, "REV_AT_EPOCH": 5629, "BSTAR": 0, "MEAN_MOTION_DOT": 3.3e-07, "MEAN_MOTION_DDOT": 0}, "tle": {"line1": "1 41860U 16069B   25336.09364198  .00000033  00000+0  00000+0 0  9994", "line2": "2 41860  55.3734 106.5405 0002264  34.5338 325.4448  1.70474451 56294"}}, "geometry": {"type": "Point", "coordinates": [81.71420885002068, -31.248355457291698]}}, {"type": "Feature", "properties": {"norad_id": 41861, "name": "GSAT0213 (GALILEO 17)", "group": "gnss", "lat": 55.01438132886707, "lon": -154.16455901679407, "alt_km": 23221.775762067642, "timestamp": "2025-12-03T04:52:29.880463+00:00", "meta": {"OBJECT_NAME": "GSAT0213 (GALILEO 17)", "OBJECT_ID": "2016-069C", "EPOCH": "2025-12-01T20:59:28.954752", "MEAN_MOTION": 1.70474717, "ECCENTRICITY": 0.00020626, "INCLINATION": 55.3756, "RA_OF_ASC_NODE": 106.5542, "ARG_OF_PERICENTER": 284.0381, "MEAN_ANOMALY": 75.9044, "EPHEMERIS_TYPE": 0, "CLASSIFICATION_TYPE": "U", "NORAD_CAT_ID": 41861, "ELEMENT_SET_NO": 999, "REV_AT_EPOCH": 5615, "BSTAR": 0, "MEAN_MOTION_DOT": 3.5e-07, "MEAN_MOTION_DDOT": 0}, "tle": {"line1": "1 41861U 16069C   25335.87464068  .00000035  00000+0  00000+0 0  9999", "line2": "2 41861  55.3756 106.5542 0002062 284.0381  75.9044  1.70474717 56156"}}, "geometry": {"type": "Point", "coordinates": [-154.16455901679407, 55.01438132886707]}}, {"type": "Feature", "properties": {"norad_id": 41862, "name": "GSAT0214 (GALILEO 18)", "group": "gnss", "lat": 4.714607904332218, "lon": 109.75438598211166, "alt_km": 23220.89035011574, "timestamp": "2025-12-03T04:52:29.880475+00:00", "meta": {"OBJECT_NAME": "GSAT0214 (GALILEO 18)", "OBJECT_ID": "2016-069D", "EPOCH": "2025-12-02T14:34:22.700352", "MEAN_MOTION": 1.70474512, "ECCENTRICITY": 0.0001109, "INCLINATION": 55.3745, "RA_OF_ASC_NODE": 106.5268, "ARG_OF_PERICENTER": 291.2976, "MEAN_ANOMALY": 68.6511, "EPHEMERIS_TYPE": 0, "CLASSIFICATION_TYPE": "U", "NORAD_CAT_ID": 41862, "ELEMENT_SET_NO": 999, "REV_AT_EPOCH": 5629, "BSTAR": 0, "MEAN_MOTION_DOT": 2.8e-07, "MEAN_MOTION_DDOT": 0}, "tle": {"line1": "1 41862U 16069D   25336.60720718  .00000028  00000+0  00000+0 0  9991", "line2": "2 41862  55.3745 106.5268 0001109 291.2976  68.6511  1.70474512 56297"}}, "geometry": {"type": "Point", "coordinates": [109.75438598211166, 4.714607904332218]}}, {"type": "Feature", "properties": {"norad_id": 42709, "name": "SES-15 (WAAS/PRN 133)", "group": "gnss", "lat": 0.028913106633977437, "lon": 16.206751439426984, "alt_km": 35787.69522826535, "timestamp": "2025-12-03T04:52:29.880486+00:00", "meta": {"OBJECT_NAME": "SES-15 (WAAS/PRN 133)", "OBJECT_ID": "2017-026A", "EPOCH": "2025-12-02T12:16:38.557632", "MEAN_MOTION": 1.00268611, "ECCENTRICITY": 3.415e-05, "INCLINATION": 0.02, "RA_OF_ASC_NODE": 343.4979, "ARG_OF_PERICENTER": 269.9972, "MEAN_ANOMALY": 233.0968, "EPHEMERIS_TYPE": 0, "CLASSIFICATION_TYPE": "U", "NORAD_CAT_ID": 42709, "ELEMENT_SET_NO": 999, "REV_AT_EPOCH": 546, "BSTAR": 0, "MEAN_MOTION_DOT": 8.1e-07, "MEAN_MOTION_DDOT": 0}, "tle": {"line1": "1 42709U 17026A   25336.51155738  .00000081  00000+0  00000+0 0  9999", "line2": "2 42709   0.0200 343.4979 0000341 269.9972 233.0968  1.00268611  5468"}}, "geometry": {"type": "Point", "coordinates": [16.206751439426984, 0.028913106633977437]}}, {"type": "Feature", "properties": {"norad_id": 42738, "name": "QZS-2 (QZSS/PRN 194)", "group": "gnss", "lat": 27.832380707413286, "lon": -74.61476010462337, "alt_km": 38010.11727532827, "timestamp": "2025-12-03T04:52:29.880499+00:00", "meta": {"OBJECT_NAME": "QZS-2 (QZSS/PRN 194)", "OBJECT_ID": "2017-028A", "EPOCH": "2025-12-02T14:25:21.359424", "MEAN_MOTION": 1.0028572, "ECCENTRICITY": 0.075922, "INCLINATION": 39.7306, "RA_OF_ASC_NODE": 246.0318, "ARG_OF_PERICENTER": 269.3692, "MEAN_ANOMALY": 274.0368, "EPHEMERIS_TYPE": 0, "CLASSIFICATION_TYPE": "U", "NORAD_CAT_ID": 42738, "ELEMENT_SET_NO": 999, "REV_AT_EPOCH": 565, "BSTAR": 0, "MEAN_MOTION_DOT": -1.54e-06, "MEAN_MOTION_DDOT": 0}, "tle": {"line1": "1 42738U 17028A   25336.60094166 -.00000154  00000+0  00000+0 0  9992", "line2": "2 42738  39.7306 246.0318 0759220 269.3692 274.0368  1.00285720  5651"}}, "geometry": {"type": "Point", "coordinates": [-74.61476010462337, 27.832380707413286]}}]}